
 1 90024U RELEAS14 00051.03935584 +.00001327  00000 0  00000 0 4 0882                                                                                                                                                                                                                                                                                                                                                                                                                                                           
 2 90024  64.7717 195.4038 6033327 269.3020  18.6110  2.0061535803847                                                                                                                                                                                                                                                                                                                                                                                                                                                           

         0.0000000        2.0061536        0.6033327       64.7717000      195.4038000      269.3020000       18.6110000
      2700.0000000        2.0061860        0.6032937       64.7766256      195.2683182      269.2704625      292.7465380
      5400.0000000        2.0062184        0.6032676       64.7789158      195.1337998      269.2379592      206.9017559
      8100.0000000        2.0062507        0.6032504       64.7789521      194.9993785      269.2071334      121.0784044
     10800.0000000        2.0062830        0.6032359       64.7783371      194.8647475      269.1789557       35.2776421
     13500.0000000        2.0063153        0.6032213       64.7787009      194.7299369      269.1528378      309.4997317
     16200.0000000        2.0063475        0.6032060       64.7810431      194.5950804      269.1272335      223.7442021
     18900.0000000        2.0063797        0.6031900       64.7853515      194.4603430      269.1002150      138.0101475
     21600.0000000        2.0064117        0.6031744       64.7903995      194.3259052      269.0702460       52.2967473
     24300.0000000        2.0064437        0.6031634       64.7941485      194.1918082      269.0372624      326.6040014
     27000.0000000        2.0064757        0.6031635       64.7951030      194.0576068      269.0033011      240.9330658
     29700.0000000        2.0065075        0.6031747       64.7937503      193.9223507      268.9714148      155.2854938
     32400.0000000        2.0065393        0.6031831       64.7924767      193.7854455      268.9431330       69.6618489
     35100.0000000        2.0065709        0.6031708       64.7937015      193.6476277      268.9168212      344.0609745
     37800.0000000        2.0066025        0.6031366       64.7977717      193.5105812      268.8889156      258.4805962
     40500.0000000        2.0066339        0.6030981       64.8025696      193.3753107      268.8572394      172.9189126
     43200.0000000        2.0066652        0.6030713       64.8054505      193.2413440      268.8229623       87.3758733


 1 90025U RELEAS14 00051.03935584 +.00001327  00000 0  00000 0 4 0882                                                                                                                                                                                                                                                                                                                                                                                                                                                           
 2 90025  64.7717 195.4038 6833327 269.3020  18.6110  2.0061535803847                                                                                                                                                                                                                                                                                                                                                                                                                                                           

         0.0000000        2.0061536        0.6833327       64.7717000      195.4038000      269.3020000       18.6110000
      2700.0000000        2.0061979        0.6832907       64.7766476      195.2112111      269.2658346      292.7354615
      5400.0000000        2.0062422        0.6832616       64.7791846      195.0199626      269.2285644      206.8877449
      8100.0000000        2.0062865        0.6832428       64.7796563      194.8289127      269.1927734      121.0693243
     10800.0000000        2.0063308        0.6832281       64.7795369      194.6376010      269.1594409       35.2812470
     13500.0000000        2.0063750        0.6832137       64.7803270      194.4460477      269.1280260      309.5238436
     16200.0000000        2.0064192        0.6831982       64.7829406      194.2544661      269.0970512      223.7968345
     18900.0000000        2.0064634        0.6831820       64.7873509      194.0631209      269.0646815      138.0995573
     21600.0000000        2.0065075        0.6831676       64.7924115      193.8722261      269.0294947       52.4313829
     24300.0000000        2.0065515        0.6831604       64.7962458      193.6817041      268.9915245      326.7923146
     27000.0000000        2.0065955        0.6831655       64.7975051      193.4908427      268.9528119      241.1832683
     29700.0000000        2.0066393        0.6831803       64.7966742      193.2984539      268.9162787      155.6054691
     32400.0000000        2.0066831        0.6831897       64.7959566      193.1039775      268.8832639       70.0593394
     35100.0000000        2.0067268        0.6831773       64.7975478      192.9085064      268.8520284      344.5438977
     37800.0000000        2.0067703        0.6831433       64.8017224      192.7141555      268.8190603      259.0572158
     40500.0000000        2.0068137        0.6831055       64.8065072      192.5220931      268.7823129      173.5977037
     43200.0000000        2.0068570        0.6830795       64.8094829      192.3316622      268.7430200       88.1651961


 1 90026U RELEAS14 00051.03935584 +.00001327  00000 0  00000 0 4 0882                                                                                                                                                                                                                                                                                                                                                                                                                                                           
 2 90026  64.7717 195.4038 7233327 269.3020  18.6110  2.0061535803847                                                                                                                                                                                                                                                                                                                                                                                                                                                           

         0.0000000        2.0061536        0.7233327       64.7717000      195.4038000      269.3020000       18.6110000
      2700.0000000        2.0062071        0.7232900       64.7767560      195.1633953      269.2614728      292.7263214
      5400.0000000        2.0062606        0.7232600       64.7795326      194.9245917      269.2197442      206.8757382
      8100.0000000        2.0063142        0.7232408       64.7803555      194.6860583      269.1793759      121.0605842
     10800.0000000        2.0063677        0.7232264       64.7806245      194.4472279      269.1413565       35.2818561
     13500.0000000        2.0064213        0.7232124       64.7817646      194.2081184      269.1051671      309.5399320
     16200.0000000        2.0064748        0.7231971       64.7846381      193.9690071      269.0693614      223.8346459
     18900.0000000        2.0065283        0.7231814       64.7892072      193.7302324      269.0321522      138.1654762
     21600.0000000        2.0065818        0.7231685       64.7943701      193.4920222      268.9921894       52.5319048
     24300.0000000        2.0066352        0.7231640       64.7983451      193.2541913      268.9495831      326.9339424
     27000.0000000        2.0066886        0.7231724       64.7998724      193.0158223      268.9063973      241.3723809
     29700.0000000        2.0067418        0.7231895       64.7994396      192.7755777      268.8654792      155.8482785
     32400.0000000        2.0067950        0.7231996       64.7991462      192.5329671      268.8280297       70.3619975
     35100.0000000        2.0068481        0.7231876       64.8010554      192.2893644      268.7922102      344.9126683
     37800.0000000        2.0069010        0.7231547       64.8053931      192.0471686      268.7545229      259.4985579
     40500.0000000        2.0069538        0.7231188       64.8102633      191.8076087      268.7130206      174.1181869
     43200.0000000        2.0070065        0.7230951       64.8133785      191.5698555      268.6690170       88.7713197

